CUTE-1 (CO-55)          
1 27844U 03031E   26195.01226219  .00000150  00000+0  83592-4 0  9994
2 27844  98.6742 203.2342 0010809 105.7080 254.5292 14.24351102195498
CUBESAT XI-IV (CO-57)   
1 27848U 03031J   26194.52222380  .00000129  00000+0  75510-4 0  9995
2 27848  98.6773 202.4416 0010486 123.7879 236.4299 14.23634003195125
CUBESAT XI-V            
1 28895U 05043F   26194.96899928  .00000696  00000+0  11722-3 0  9992
2 28895  98.3013 351.1584 0015221 118.8441 241.4296 14.72700573105698
CUTE-1.7+APD II (CO-65) 
1 32785U 08021C   26195.16052352  .00003093  00000+0  19607-3 0  9993
2 32785  97.8289 177.1472 0007115 303.6088  56.4461 15.09695039989268
CANX-2                  
1 32790U 08021H   26194.87027828  .00001884  00000+0  13437-3 0  9997
2 32790  97.8656 175.1723 0008842 323.2603  36.8016 15.05801950988824
SEEDS II (CO-66)        
1 32791U 08021J   26194.95931626  .00011026  00000+0  34146-3 0  9996
2 32791  97.7520 194.1541 0002932 158.7607 201.3756 15.33640090991395
SWISSCUBE               
1 35932U 09051B   26195.19308272  .00000489  00000+0  10606-3 0  9998
2 35932  98.4009 103.5496 0007816 121.6885 238.5079 14.62529785893109
BEESAT-1                
1 35933U 09051C   26194.73748186  .00000394  00000+0  88826-4 0  9995
2 35933  98.3937 102.6657 0006039 133.6539 226.5163 14.61760532893065
ITUPSAT1                
1 35935U 09051E   26194.68314044  .00000364  00000+0  85196-4 0  9997
2 35935  98.4020 101.7741 0007976 147.4965 212.6727 14.60477451892607
TISAT 1                 
1 36799U 10035E   26195.08860619  .00012325  00000+0  39274-3 0  9994
2 36799  98.0712 144.0471 0004417 121.8770 238.2901 15.32704715871822
STRAND-1                
1 39090U 13009E   26195.06912199  .00000136  00000+0  59984-4 0  9992
2 39090  98.3933  14.6434 0009358 144.1848 215.9968 14.37178494700921
BRITE-AUSTRIA           
1 39091U 13009F   26195.02401074  .00000083  00000+0  42766-4 0  9995
2 39091  98.4007  13.7972 0010697 153.9873 206.1854 14.36552238700901
NEE-01 PEGASO           
1 39151U 13018B   26195.19466183  .00001086  00000+0  10814-3 0  9994
2 39151  98.1251 340.2439 0013644  77.3400 282.9343 14.93785831714733
POPACS 2                
1 39269U 13055E   26194.20595882  .00013879 -91286-6  22645-3 0  9997
2 39269  80.9920 114.4009 0415091 110.2648 254.3692 14.91964314667091
POPACS 3                
1 39270U 13055F   26194.98119529  .00008700  00000+0  20647-3 0  9997
2 39270  80.9985 200.1222 0548933 348.3738  10.5179 14.56640579642450
ZACUBE-1 (TSHEPISOSAT)  
1 39417U 13066B   26194.93495080  .00001330  00000+0  10618-3 0  9995
2 39417  97.8009 157.4041 0043958 159.2498 201.0523 15.01325644684741
WNISAT-1                
1 39423U 13066H   26194.90632565  .00000631  00000+0  12264-3 0  9992
2 39423  97.7233 342.1704 0163811 147.3521 213.7936 14.58118261670627
TRITON-1                
1 39427U 13066M   26195.17244156  .00000990  00000+0  12352-3 0  9997
2 39427  97.8227 104.3636 0090482 145.3973 215.3174 14.81792558678082
GOMX-1                  
1 39430U 13066Q   26195.14989131  .00000799  00000+0  12654-3 0  9999
2 39430  97.6470  33.9113 0128377 351.5784   8.3268 14.69541528673878
CUBEBUG-2 (LO-74)       
1 39440U 13066AA  26194.85564855  .00001982  00000+0  18634-3 0  9998
2 39440  97.8911 143.9522 0055843 299.8965  59.6713 14.93961470680971
NEE-02 KRYSAOR          
1 39441U 13066AB  26194.79460108  .00001207  00000+0  13694-3 0  9999
2 39441  97.8897 133.8221 0065556 343.8948  16.0182 14.86735376680155
FUNCUBE-1 (AO-73)       
1 39444U 13066AE  26194.96715403  .00003609  00000+0  22382-3 0  9994
2 39444  97.8287 166.9802 0038025 111.5957 248.9329 15.09809112683703
UWE-3                   
1 39446U 13066AG  26194.81649093  .00001855  00000+0  16225-3 0  9991
2 39446  97.8703 151.0751 0047496 229.2786 130.4306 14.97193233681563
BRITE-CA1 (TORONTO)     
1 40020U 14033L   26194.87563814  .00000531  00000+0  87417-4 0  9990
2 40020  97.9770 323.3165 0078341 190.4879 169.4699 14.72721023646145
DUCHIFAT-1              
1 40021U 14033M   26195.15102648  .00100682  00000+0  80375-3 0  9990
2 40021  98.0414 258.2325 0002570 244.3653 115.7342 15.70816354659972
NANOSATC-BR1            
1 40024U 14033Q   26195.05205308  .00010664  00000+0  34449-3 0  9990
2 40024  98.0712 229.8358 0005327  99.9828 260.2013 15.32305003658092
QB50P1                  
1 40025U 14033R   26194.57500626  .00005023  00000+0  24591-3 0  9998
2 40025  98.0963 207.5784 0010293 129.5975 230.6167 15.18651217657037
QB50P2                  
1 40032U 14033Y   26194.97572463  .00003716  00000+0  20003-3 0  9999
2 40032  98.0758 193.5313 0009341  87.2304 272.9995 15.15497026656723
PERSEUS-M2              
1 40037U 14033AD  26195.16016870  .00001526  00000+0  14285-3 0  9993
2 40037  97.9973 146.2528 0010733 202.2299 157.8457 14.95590988654817
PERSEUS-M1              
1 40039U 14033AF  26194.79647293  .00001289  00000+0  12116-3 0  9999
2 40039  97.9652 139.3677 0010828 201.1513 158.9261 14.95712422654615
