OBJECT_NAME,OBJECT_ID,EPOCH,MEAN_MOTION,ECCENTRICITY,INCLINATION,RA_OF_ASC_NODE,ARG_OF_PERICENTER,MEAN_ANOMALY,EPHEMERIS_TYPE,CLASSIFICATION_TYPE,NORAD_CAT_ID,ELEMENT_SET_NO,REV_AT_EPOCH,BSTAR,MEAN_MOTION_DOT,MEAN_MOTION_DDOT
CUTE-1 (CO-55),2003-031E,2026-07-14T00:17:39.453216,14.24351102,.0010809,98.6742,203.2342,105.7080,254.5292,0,U,27844,999,19549,.83592E-4,.15E-5,0
CUBESAT XI-IV (CO-57),2003-031J,2026-07-13T12:32:00.136320,14.23634003,.0010486,98.6773,202.4416,123.7879,236.4299,0,U,27848,999,19512,.7551E-4,.129E-5,0
CUBESAT XI-V,2005-043F,2026-07-13T23:15:21.537792,14.72700573,.0015221,98.3013,351.1584,118.8441,241.4296,0,U,28895,999,10569,.11722E-3,.696E-5,0
CUTE-1.7+APD II (CO-65),2008-021C,2026-07-14T03:51:09.232128,15.09695039,.0007115,97.8289,177.1472,303.6088,56.4461,0,U,32785,999,98926,.19607E-3,.3093E-4,0
CANX-2,2008-021H,2026-07-13T20:53:12.043392,15.05801950,.0008842,97.8656,175.1723,323.2603,36.8016,0,U,32790,999,98882,.13437E-3,.1884E-4,0
SEEDS II (CO-66),2008-021J,2026-07-13T23:01:24.924864,15.33640090,.0002932,97.7520,194.1541,158.7607,201.3756,0,U,32791,999,99139,.34146E-3,.11026E-3,0
SWISSCUBE,2009-051B,2026-07-14T04:38:02.347008,14.62529785,.0007816,98.4009,103.5496,121.6885,238.5079,0,U,35932,999,89310,.10606E-3,.489E-5,0
BEESAT-1,2009-051C,2026-07-13T17:41:58.432704,14.61760532,.0006039,98.3937,102.6657,133.6539,226.5163,0,U,35933,999,89306,.88826E-4,.394E-5,0
ITUPSAT1,2009-051E,2026-07-13T16:23:43.334016,14.60477451,.0007976,98.4020,101.7741,147.4965,212.6727,0,U,35935,999,89260,.85196E-4,.364E-5,0
TISAT 1,2010-035E,2026-07-14T02:07:35.574816,15.32704715,.0004417,98.0712,144.0471,121.8770,238.2901,0,U,36799,999,87182,.39274E-3,.12325E-3,0
STRAND-1,2013-009E,2026-07-14T01:39:32.139936,14.37178494,.0009358,98.3933,14.6434,144.1848,215.9968,0,U,39090,999,70092,.59984E-4,.136E-5,0
BRITE-AUSTRIA,2013-009F,2026-07-14T00:34:34.527936,14.36552238,.0010697,98.4007,13.7972,153.9873,206.1854,0,U,39091,999,70090,.42766E-4,.83E-6,0
NEE-01 PEGASO,2013-018B,2026-07-14T04:40:18.782112,14.93785831,.0013644,98.1251,340.2439,77.3400,282.9343,0,U,39151,999,71473,.10814E-3,.1086E-4,0
POPACS 2,2013-055E,2026-07-13T04:56:34.842048,14.91964314,.04150914,80.9920,114.4009,110.2648,254.3692,0,U,39269,999,66709,.22645196E-3,.13879E-3,-.912864E-6
POPACS 3,2013-055F,2026-07-13T23:32:55.273056,14.56640579,.0548933,80.9985,200.1222,348.3738,10.5179,0,U,39270,999,64245,.20647E-3,.87E-4,0
ZACUBE-1 (TSHEPISOSAT),2013-066B,2026-07-13T22:26:19.749120,15.01325644,.0043958,97.8009,157.4041,159.2498,201.0523,0,U,39417,999,68474,.10618E-3,.133E-4,0
WNISAT-1,2013-066H,2026-07-13T21:45:06.536160,14.58118261,.0163811,97.7233,342.1704,147.3521,213.7936,0,U,39423,999,67062,.12264E-3,.631E-5,0
TRITON-1,2013-066M,2026-07-14T04:08:18.950784,14.81792558,.0090482,97.8227,104.3636,145.3973,215.3174,0,U,39427,999,67808,.12352E-3,.99E-5,0
GOMX-1,2013-066Q,2026-07-14T03:35:50.609184,14.69541528,.0128377,97.6470,33.9113,351.5784,8.3268,0,U,39430,999,67387,.12654E-3,.799E-5,0
CUBEBUG-2 (LO-74),2013-066AA,2026-07-13T20:32:08.034720,14.93961470,.0055843,97.8911,143.9522,299.8965,59.6713,0,U,39440,999,68097,.18634E-3,.1982E-4,0
NEE-02 KRYSAOR,2013-066AB,2026-07-13T19:04:13.533312,14.86735376,.0065556,97.8897,133.8221,343.8948,16.0182,0,U,39441,999,68015,.13694E-3,.1207E-4,0
FUNCUBE-1 (AO-73),2013-066AE,2026-07-13T23:12:42.108192,15.09809112,.0038025,97.8287,166.9802,111.5957,248.9329,0,U,39444,999,68370,.22382E-3,.3609E-4,0
UWE-3,2013-066AG,2026-07-13T19:35:44.816352,14.97193233,.0047496,97.8703,151.0751,229.2786,130.4306,0,U,39446,999,68156,.16225E-3,.1855E-4,0
BRITE-CA1 (TORONTO),2014-033L,2026-07-13T21:00:55.135296,14.72721023,.0078341,97.9770,323.3165,190.4879,169.4699,0,U,40020,999,64614,.87417E-4,.531E-5,0
DUCHIFAT-1,2014-033M,2026-07-14T03:37:28.687872,15.70816354,.000257,98.0414,258.2325,244.3653,115.7342,0,U,40021,999,65997,.80375E-3,.100682E-2,0
NANOSATC-BR1,2014-033Q,2026-07-14T01:14:57.386112,15.32305003,.0005327,98.0712,229.8358,99.9828,260.2013,0,U,40024,999,65809,.34449E-3,.10664E-3,0
QB50P1,2014-033R,2026-07-13T13:48:00.540864,15.18651217,.0010293,98.0963,207.5784,129.5975,230.6167,0,U,40025,999,65703,.24591E-3,.5023E-4,0
QB50P2,2014-033Y,2026-07-13T23:25:02.608032,15.15497026,.0009341,98.0758,193.5313,87.2304,272.9995,0,U,40032,999,65672,.20003E-3,.3716E-4,0
PERSEUS-M2,2014-033AD,2026-07-14T03:50:38.575680,14.95590988,.0010733,97.9973,146.2528,202.2299,157.8457,0,U,40037,999,65481,.14285E-3,.1526E-4,0
PERSEUS-M1,2014-033AF,2026-07-13T19:06:55.261152,14.95712422,.0010828,97.9652,139.3677,201.1513,158.9261,0,U,40039,999,65461,.12116E-3,.1289E-4,0
